[{"OBJECT_NAME":"ONEWEB-0151","OBJECT_ID":"2021-025AA","EPOCH":"2026-03-09T19:30:47.900160","MEAN_MOTION":13.13469771,"ECCENTRICITY":0.00018127,"INCLINATION":87.9037,"RA_OF_ASC_NODE":339.9892,"ARG_OF_PERICENTER":81.8028,"MEAN_ANOMALY":278.3307,"EPHEMERIS_TYPE":0,"CLASSIFICATION_TYPE":"U","NORAD_CAT_ID":48066,"ELEMENT_SET_NO":999,"REV_AT_EPOCH":24054,"BSTAR":0.00094826988,"MEAN_MOTION_DOT":3.59e-6,"MEAN_MOTION_DDOT":0},{"OBJECT_NAME":"CZ-4C DEB","OBJECT_ID":"2012-066G","EPOCH":"2026-03-09T00:17:54.744288","MEAN_MOTION":12.93157707,"ECCENTRICITY":0.01642726,"INCLINATION":63.3567,"RA_OF_ASC_NODE":219.4748,"ARG_OF_PERICENTER":343.8029,"MEAN_ANOMALY":15.7755,"EPHEMERIS_TYPE":0,"CLASSIFICATION_TYPE":"U","NORAD_CAT_ID":43404,"ELEMENT_SET_NO":999,"REV_AT_EPOCH":58042,"BSTAR":0.00035966038,"MEAN_MOTION_DOT":2.6e-7,"MEAN_MOTION_DDOT":0}]
